{
  "type": "FeatureCollection",
  "features": [
    {
      "type": "Feature",
      "properties": {
        "norad_id": 66808,
        "name": "STARLINK-36071",
        "group": "last-30-days",
        "lat": 9.658399562647187,
        "lon": -90.77106632987376,
        "alt_km": 300.72735500057024,
        "timestamp": "2025-12-11T15:53:38.294759+00:00",
        "meta_object_name": "STARLINK-36071",
        "meta_object_id": "2025-278T",
        "meta_epoch": "2025-12-11T06:00:02.999808",
        "meta_mean_motion": 15.91210044,
        "meta_eccentricity": 0.00017687,
        "meta_inclination": 42.9981,
        "meta_ra_of_asc_node": 261.2646,
        "meta_arg_of_pericenter": 270.1621,
        "meta_mean_anomaly": 260.7377,
        "meta_ephemeris_type": 0,
        "meta_classification_type": "U",
        "meta_norad_cat_id": 66808,
        "meta_element_set_no": 999,
        "meta_rev_at_epoch": 271,
        "meta_bstar": -0.0041870333,
        "meta_mean_motion_dot": -0.01379498,
        "meta_mean_motion_ddot": 0.00054010404,
        "tle_line1": "1 66808U 25278T   25345.25003472 -.01379498  54010-3 -41870-2 0  9992",
        "tle_line2": "2 66808  42.9981 261.2646 0001768 270.1621 260.7377 15.91210044  2710"
      },
      "geometry": {
        "type": "Point",
        "coordinates": [
          -90.77106632987376,
          9.658399562647187
        ]
      }
    },
    {
      "type": "Feature",
      "properties": {
        "norad_id": 66809,
        "name": "STARLINK-35979",
        "group": "last-30-days",
        "lat": 14.597593616582973,
        "lon": -85.08324906364446,
        "alt_km": 299.831793976623,
        "timestamp": "2025-12-11T15:53:38.294769+00:00",
        "meta_object_name": "STARLINK-35979",
        "meta_object_id": "2025-278U",
        "meta_epoch": "2025-12-11T06:00:02.999808",
        "meta_mean_motion": 15.91293982,
        "meta_eccentricity": 0.00018636,
        "meta_inclination": 42.9981,
        "meta_ra_of_asc_node": 261.246,
        "meta_arg_of_pericenter": 273.0923,
        "meta_mean_anomaly": 265.1206,
        "meta_ephemeris_type": 0,
        "meta_classification_type": "U",
        "meta_norad_cat_id": 66809,
        "meta_element_set_no": 999,
        "meta_rev_at_epoch": 271,
        "meta_bstar": -0.0041326642,
        "meta_mean_motion_dot": -0.01367652,
        "meta_mean_motion_ddot": 0.00053206327,
        "tle_line1": "1 66809U 25278U   25345.25003472 -.01367652  53206-3 -41327-2 0  9995",
        "tle_line2": "2 66809  42.9981 261.2460 0001863 273.0923 265.1206 15.91293982  2710"
      },
      "geometry": {
        "type": "Point",
        "coordinates": [
          -85.08324906364446,
          14.597593616582973
        ]
      }
    },
    {
      "type": "Feature",
      "properties": {
        "norad_id": 66810,
        "name": "STARLINK-36046",
        "group": "last-30-days",
        "lat": 11.355084738654798,
        "lon": -88.85505240730788,
        "alt_km": 300.4027896378693,
        "timestamp": "2025-12-11T15:53:38.294779+00:00",
        "meta_object_name": "STARLINK-36046",
        "meta_object_id": "2025-278V",
        "meta_epoch": "2025-12-11T06:00:02.999808",
        "meta_mean_motion": 15.91232103,
        "meta_eccentricity": 0.00018287,
        "meta_inclination": 42.9983,
        "meta_ra_of_asc_node": 261.2585,
        "meta_arg_of_pericenter": 271.5678,
        "meta_mean_anomaly": 261.8263,
        "meta_ephemeris_type": 0,
        "meta_classification_type": "U",
        "meta_norad_cat_id": 66810,
        "meta_element_set_no": 999,
        "meta_rev_at_epoch": 248,
        "meta_bstar": -0.0041266956,
        "meta_mean_motion_dot": -0.01361384,
        "meta_mean_motion_ddot": 0.00052729319,
        "tle_line1": "1 66810U 25278V   25345.25003472 -.01361384  52729-3 -41267-2 0  9995",
        "tle_line2": "2 66810  42.9983 261.2585 0001828 271.5678 261.8263 15.91232103  2481"
      },
      "geometry": {
        "type": "Point",
        "coordinates": [
          -88.85505240730788,
          11.355084738654798
        ]
      }
    },
    {
      "type": "Feature",
      "properties": {
        "norad_id": 66811,
        "name": "STARLINK-36045",
        "group": "last-30-days",
        "lat": 13.062515373211903,
        "lon": -86.88915236611707,
        "alt_km": 300.04578763044356,
        "timestamp": "2025-12-11T15:53:38.294789+00:00",
        "meta_object_name": "STARLINK-36045",
        "meta_object_id": "2025-278W",
        "meta_epoch": "2025-12-11T06:00:02.999808",
        "meta_mean_motion": 15.91267503,
        "meta_eccentricity": 0.0001803,
        "meta_inclination": 42.9984,
        "meta_ra_of_asc_node": 261.2521,
        "meta_arg_of_pericenter": 274.6982,
        "meta_mean_anomaly": 261.224,
        "meta_ephemeris_type": 0,
        "meta_classification_type": "U",
        "meta_norad_cat_id": 66811,
        "meta_element_set_no": 999,
        "meta_rev_at_epoch": 271,
        "meta_bstar": -0.0041545009,
        "meta_mean_motion_dot": -0.01372926,
        "meta_mean_motion_ddot": 0.00053569233,
        "tle_line1": "1 66811U 25278W   25345.25003472 -.01372926  53569-3 -41545-2 0  9992",
        "tle_line2": "2 66811  42.9984 261.2521 0001803 274.6982 261.2240 15.91267503  2715"
      },
      "geometry": {
        "type": "Point",
        "coordinates": [
          -86.88915236611707,
          13.062515373211903
        ]
      }
    },
    {
      "type": "Feature",
      "properties": {
        "norad_id": 66812,
        "name": "STARLINK-36054",
        "group": "last-30-days",
        "lat": 15.932489020681134,
        "lon": -83.47829337924247,
        "alt_km": 299.564936829056,
        "timestamp": "2025-12-11T15:53:38.294799+00:00",
        "meta_object_name": "STARLINK-36054",
        "meta_object_id": "2025-278X",
        "meta_epoch": "2025-12-11T06:00:02.999808",
        "meta_mean_motion": 15.91329675,
        "meta_eccentricity": 0.00017886,
        "meta_inclination": 42.9984,
        "meta_ra_of_asc_node": 261.2411,
        "meta_arg_of_pericenter": 274.0245,
        "meta_mean_anomaly": 266.1911,
        "meta_ephemeris_type": 0,
        "meta_classification_type": "U",
        "meta_norad_cat_id": 66812,
        "meta_element_set_no": 999,
        "meta_rev_at_epoch": 271,
        "meta_bstar": -0.0041673956,
        "meta_mean_motion_dot": -0.01381515,
        "meta_mean_motion_ddot": 0.00054217031,
        "tle_line1": "1 66812U 25278X   25345.25003472 -.01381515  54217-3 -41674-2 0  9991",
        "tle_line2": "2 66812  42.9984 261.2411 0001788 274.0245 266.1911 15.91329675  2710"
      },
      "geometry": {
        "type": "Point",
        "coordinates": [
          -83.47829337924247,
          15.932489020681134
        ]
      }
    },
    {
      "type": "Feature",
      "properties": {
        "norad_id": 66813,
        "name": "STARLINK-36042",
        "group": "last-30-days",
        "lat": 17.152871860907794,
        "lon": -81.97942185130317,
        "alt_km": 299.3703554459753,
        "timestamp": "2025-12-11T15:53:38.294812+00:00",
        "meta_object_name": "STARLINK-36042",
        "meta_object_id": "2025-278Y",
        "meta_epoch": "2025-12-11T06:00:02.999808",
        "meta_mean_motion": 15.91362308,
        "meta_eccentricity": 0.00018398,
        "meta_inclination": 42.9984,
        "meta_ra_of_asc_node": 261.2362,
        "meta_arg_of_pericenter": 272.8788,
        "meta_mean_anomaly": 269.1765,
        "meta_ephemeris_type": 0,
        "meta_classification_type": "U",
        "meta_norad_cat_id": 66813,
        "meta_element_set_no": 999,
        "meta_rev_at_epoch": 271,
        "meta_bstar": -0.0041653816,
        "meta_mean_motion_dot": -0.0138317,
        "meta_mean_motion_ddot": 0.00054353129,
        "tle_line1": "1 66813U 25278Y   25345.25003472 -.01383170  54353-3 -41654-2 0  9990",
        "tle_line2": "2 66813  42.9984 261.2362 0001839 272.8788 269.1765 15.91362308  2711"
      },
      "geometry": {
        "type": "Point",
        "coordinates": [
          -81.97942185130317,
          17.152871860907794
        ]
      }
    },
    {
      "type": "Feature",
      "properties": {
        "norad_id": 66814,
        "name": "STARLINK-35984",
        "group": "last-30-days",
        "lat": 26.53008848855777,
        "lon": -68.96493833122803,
        "alt_km": 297.80890995072514,
        "timestamp": "2025-12-11T15:53:38.294823+00:00",
        "meta_object_name": "STARLINK-35984",
        "meta_object_id": "2025-278Z",
        "meta_epoch": "2025-12-11T06:00:02.999808",
        "meta_mean_motion": 15.91538635,
        "meta_eccentricity": 0.0001728,
        "meta_inclination": 42.9981,
        "meta_ra_of_asc_node": 261.1979,
        "meta_arg_of_pericenter": 271.7072,
        "meta_mean_anomaly": 285.411,
        "meta_ephemeris_type": 0,
        "meta_classification_type": "U",
        "meta_norad_cat_id": 66814,
        "meta_element_set_no": 999,
        "meta_rev_at_epoch": 280,
        "meta_bstar": -0.0042911178,
        "meta_mean_motion_dot": -0.01437314,
        "meta_mean_motion_ddot": 0.00058415036,
        "tle_line1": "1 66814U 25278Z   25345.25003472 -.01437314  58415-3 -42911-2 0  9991",
        "tle_line2": "2 66814  42.9981 261.1979 0001728 271.7072 285.4110 15.91538635  2806"
      },
      "geometry": {
        "type": "Point",
        "coordinates": [
          -68.96493833122803,
          26.53008848855777
        ]
      }
    }
  ]
}